[
    {
        "Altitude(m)": 705375.5164287452,
        "Argument of Periapsis(deg)": 0.009112096949301655,
        "Eccentricity": 0.0,
        "Inclination(deg)": 45.0,
        "Latitude(deg)": 36.12490639395332,
        "Longitude(deg)": -82.1616501198326,
        "Mean Anomaly(deg)": -236.2279266820153,
        "RAAN(deg)": 244.99139844683344,
        "Satellite Name": "Constellation 1 1085",
        "Satellite Number": 1085,
        "Semi-Major Axis(m)": 7083131.272910544,
        "Time(s)": 152
    },
    {
        "Altitude(m)": 705369.6617539354,
        "Argument of Periapsis(deg)": 0.009172044955547059,
        "Eccentricity": 0.0,
        "Inclination(deg)": 45.0,
        "Latitude(deg)": 36.09525940847074,
        "Longitude(deg)": -82.10023139678933,
        "Mean Anomaly(deg)": -236.16722554176548,
        "RAAN(deg)": 244.9913418576679,
        "Satellite Name": "Constellation 1 1085",
        "Satellite Number": 1085,
        "Semi-Major Axis(m)": 7083131.272910544,
        "Time(s)": 153
    },
    {
        "Altitude(m)": 705363.8041768386,
        "Argument of Periapsis(deg)": 0.009231992961792466,
        "Eccentricity": 0.0,
        "Inclination(deg)": 45.0,
        "Latitude(deg)": 36.06557648063226,
        "Longitude(deg)": -82.03886187509272,
        "Mean Anomaly(deg)": -236.10652440151546,
        "RAAN(deg)": 244.99128526850234,
        "Satellite Name": "Constellation 1 1085",
        "Satellite Number": 1085,
        "Semi-Major Axis(m)": 7083131.272910544,
        "Time(s)": 154
    },
    {
        "Altitude(m)": 705357.9437343715,
        "Argument of Periapsis(deg)": 0.009291940968037872,
        "Eccentricity": 0.0,
        "Inclination(deg)": 45.0,
        "Latitude(deg)": 36.035857675661205,
        "Longitude(deg)": -81.97754152361463,
        "Mean Anomaly(deg)": -236.04582326126567,
        "RAAN(deg)": 244.99122867933679,
        "Satellite Name": "Constellation 1 1085",
        "Satellite Number": 1085,
        "Semi-Major Axis(m)": 7083131.272910544,
        "Time(s)": 155
    },
    {
        "Altitude(m)": 705352.0804634815,
        "Argument of Periapsis(deg)": 0.009351888974283276,
        "Eccentricity": 0.0,
        "Inclination(deg)": 45.0,
        "Latitude(deg)": 36.006103058724456,
        "Longitude(deg)": -81.91627047907691,
        "Mean Anomaly(deg)": -235.98512212101576,
        "RAAN(deg)": 244.99117209017118,
        "Satellite Name": "Constellation 1 1085",
        "Satellite Number": 1085,
        "Semi-Major Axis(m)": 7083131.272910544,
        "Time(s)": 156
    },
    {
        "Altitude(m)": 705346.214401146,
        "Argument of Periapsis(deg)": 0.00941183698052868,
        "Eccentricity": 0.0,
        "Inclination(deg)": 45.0,
        "Latitude(deg)": 35.97631269493234,
        "Longitude(deg)": -81.8550483736657,
        "Mean Anomaly(deg)": -235.92442098076583,
        "RAAN(deg)": 244.99111550100562,
        "Satellite Name": "Constellation 1 1085",
        "Satellite Number": 1085,
        "Semi-Major Axis(m)": 7083131.272910544,
        "Time(s)": 157
    },
    {
        "Altitude(m)": 705340.3455843707,
        "Argument of Periapsis(deg)": 0.009471784986774088,
        "Eccentricity": 0.0,
        "Inclination(deg)": 45.0,
        "Latitude(deg)": 35.946486649338226,
        "Longitude(deg)": -81.79387534361342,
        "Mean Anomaly(deg)": -235.86371984051593,
        "RAAN(deg)": 244.99105891184004,
        "Satellite Name": "Constellation 1 1085",
        "Satellite Number": 1085,
        "Semi-Major Axis(m)": 7083131.272910544,
        "Time(s)": 158
    },
    {
        "Altitude(m)": 705334.4740501925,
        "Argument of Periapsis(deg)": 0.009531732993019492,
        "Eccentricity": 0.0,
        "Inclination(deg)": 45.0,
        "Latitude(deg)": 35.91662498693862,
        "Longitude(deg)": -81.73275135681328,
        "Mean Anomaly(deg)": -235.80301870026605,
        "RAAN(deg)": 244.9910023226745,
        "Satellite Name": "Constellation 1 1085",
        "Satellite Number": 1085,
        "Semi-Major Axis(m)": 7083131.272910544,
        "Time(s)": 159
    },
    {
        "Altitude(m)": 705328.5998356739,
        "Argument of Periapsis(deg)": 0.009591680999264898,
        "Eccentricity": 0.0,
        "Inclination(deg)": 45.0,
        "Latitude(deg)": 35.88672777267251,
        "Longitude(deg)": -81.67167638091689,
        "Mean Anomaly(deg)": -235.74231756001615,
        "RAAN(deg)": 244.99094573350894,
        "Satellite Name": "Constellation 1 1085",
        "Satellite Number": 1085,
        "Semi-Major Axis(m)": 7083131.272910544,
        "Time(s)": 160
    },
    {
        "Altitude(m)": 705322.7229779151,
        "Argument of Periapsis(deg)": 0.009651629005510304,
        "Eccentricity": 0.0,
        "Inclination(deg)": 45.0,
        "Latitude(deg)": 35.85679507142133,
        "Longitude(deg)": -81.61065038333588,
        "Mean Anomaly(deg)": -235.68161641976621,
        "RAAN(deg)": 244.99088914434333,
        "Satellite Name": "Constellation 1 1085",
        "Satellite Number": 1085,
        "Semi-Major Axis(m)": 7083131.272910544,
        "Time(s)": 161
    },
    {
        "Altitude(m)": 705316.843514035,
        "Argument of Periapsis(deg)": 0.00971157701175571,
        "Eccentricity": 0.0,
        "Inclination(deg)": 45.0,
        "Latitude(deg)": 35.82682694800885,
        "Longitude(deg)": -81.5496733312434,
        "Mean Anomaly(deg)": -235.62091527951634,
        "RAAN(deg)": 244.99083255517778,
        "Satellite Name": "Constellation 1 1085",
        "Satellite Number": 1085,
        "Semi-Major Axis(m)": 7083131.272910544,
        "Time(s)": 162
    },
    {
        "Altitude(m)": 705310.9614811854,
        "Argument of Periapsis(deg)": 0.009771525018001118,
        "Eccentricity": 0.0,
        "Inclination(deg)": 45.0,
        "Latitude(deg)": 35.79682346720062,
        "Longitude(deg)": -81.48874535967168,
        "Mean Anomaly(deg)": -235.56021413926644,
        "RAAN(deg)": 244.9907759660122,
        "Satellite Name": "Constellation 1 1085",
        "Satellite Number": 1085,
        "Semi-Major Axis(m)": 7083131.272910544,
        "Time(s)": 163
    },
    {
        "Altitude(m)": 705305.0769165531,
        "Argument of Periapsis(deg)": 0.00983147302424652,
        "Eccentricity": 0.0,
        "Inclination(deg)": 45.0,
        "Latitude(deg)": 35.76678469370395,
        "Longitude(deg)": -81.42786609912648,
        "Mean Anomaly(deg)": -235.4995129990165,
        "RAAN(deg)": 244.99071937684664,
        "Satellite Name": "Constellation 1 1085",
        "Satellite Number": 1085,
        "Semi-Major Axis(m)": 7083131.272910544,
        "Time(s)": 164
    },
    {
        "Altitude(m)": 705299.1898573412,
        "Argument of Periapsis(deg)": 0.009891421030491928,
        "Eccentricity": 0.0,
        "Inclination(deg)": 45.0,
        "Latitude(deg)": 35.73671069216778,
        "Longitude(deg)": -81.36703568416964,
        "Mean Anomaly(deg)": -235.4388118587666,
        "RAAN(deg)": 244.99066278768103,
        "Satellite Name": "Constellation 1 1085",
        "Satellite Number": 1085,
        "Semi-Major Axis(m)": 7083131.272910544,
        "Time(s)": 165
    },
    {
        "Altitude(m)": 705293.300340788,
        "Argument of Periapsis(deg)": 0.009951369036737332,
        "Eccentricity": 0.0,
        "Inclination(deg)": 45.0,
        "Latitude(deg)": 35.70660152718219,
        "Longitude(deg)": -81.30625408103229,
        "Mean Anomaly(deg)": -235.37811071851675,
        "RAAN(deg)": 244.99060619851548,
        "Satellite Name": "Constellation 1 1085",
        "Satellite Number": 1085,
        "Semi-Major Axis(m)": 7083131.272910544,
        "Time(s)": 166
    },
    {
        "Altitude(m)": 705287.4084041616,
        "Argument of Periapsis(deg)": 0.010011317042982738,
        "Eccentricity": 0.0,
        "Inclination(deg)": 45.0,
        "Latitude(deg)": 35.67645726327817,
        "Longitude(deg)": -81.2455212557134,
        "Mean Anomaly(deg)": -235.31740957826688,
        "RAAN(deg)": 244.99054960934993,
        "Satellite Name": "Constellation 1 1085",
        "Satellite Number": 1085,
        "Semi-Major Axis(m)": 7083131.272910544,
        "Time(s)": 167
    },
    {
        "Altitude(m)": 705281.5140847568,
        "Argument of Periapsis(deg)": 0.010071265049228144,
        "Eccentricity": 0.0,
        "Inclination(deg)": 45.0,
        "Latitude(deg)": 35.64627796492772,
        "Longitude(deg)": -81.18483717398135,
        "Mean Anomaly(deg)": -235.25670843801694,
        "RAAN(deg)": 244.99049302018435,
        "Satellite Name": "Constellation 1 1085",
        "Satellite Number": 1085,
        "Semi-Major Axis(m)": 7083131.272910544,
        "Time(s)": 168
    },
    {
        "Altitude(m)": 705275.617419887,
        "Argument of Periapsis(deg)": 0.01013121305547355,
        "Eccentricity": 0.0,
        "Inclination(deg)": 45.0,
        "Latitude(deg)": 35.61606369654339,
        "Longitude(deg)": -81.12420180137494,
        "Mean Anomaly(deg)": -235.19600729776707,
        "RAAN(deg)": 244.9904364310188,
        "Satellite Name": "Constellation 1 1085",
        "Satellite Number": 1085,
        "Semi-Major Axis(m)": 7083131.272910544,
        "Time(s)": 169
    },
    {
        "Altitude(m)": 705269.7184469088,
        "Argument of Periapsis(deg)": 0.010191161061718957,
        "Eccentricity": 0.0,
        "Inclination(deg)": 45.0,
        "Latitude(deg)": 35.585814522477904,
        "Longitude(deg)": -81.06361510320427,
        "Mean Anomaly(deg)": -235.13530615751714,
        "RAAN(deg)": 244.99037984185318,
        "Satellite Name": "Constellation 1 1085",
        "Satellite Number": 1085,
        "Semi-Major Axis(m)": 7083131.272910544,
        "Time(s)": 170
    }
]